[{"OBJECT_NAME":"OBJECT V","OBJECT_ID":"2023-085V","EPOCH":"2026-03-09T21:44:00.165408","MEAN_MOTION":15.30745852,"ECCENTRICITY":0.00069081,"INCLINATION":97.4843,"RA_OF_ASC_NODE":179.3833,"ARG_OF_PERICENTER":71.0503,"MEAN_ANOMALY":289.1485,"EPHEMERIS_TYPE":0,"CLASSIFICATION_TYPE":"U","NORAD_CAT_ID":57023,"ELEMENT_SET_NO":999,"REV_AT_EPOCH":15149,"BSTAR":0.00067780507,"MEAN_MOTION_DOT":0.00020109,"MEAN_MOTION_DDOT":0},{"OBJECT_NAME":"STARLINK-32463","OBJECT_ID":"2024-222S","EPOCH":"2026-03-09T12:09:37.816416","MEAN_MOTION":15.27589234,"ECCENTRICITY":0.00013166,"INCLINATION":43.0018,"RA_OF_ASC_NODE":136.9895,"ARG_OF_PERICENTER":249.159,"MEAN_ANOMALY":110.9121,"EPHEMERIS_TYPE":0,"CLASSIFICATION_TYPE":"U","NORAD_CAT_ID":62130,"ELEMENT_SET_NO":999,"REV_AT_EPOCH":7272,"BSTAR":0.0010114401,"MEAN_MOTION_DOT":0.00027683,"MEAN_MOTION_DDOT":0}]
